[{"OBJECT_NAME":"QIANFAN-18","OBJECT_ID":"2024-140T","EPOCH":"2026-03-02T18:37:53.051808","MEAN_MOTION":13.51003113,"ECCENTRICITY":0.0013366,"INCLINATION":88.9726,"RA_OF_ASC_NODE":290.6952,"ARG_OF_PERICENTER":323.8189,"MEAN_ANOMALY":36.2057,"EPHEMERIS_TYPE":0,"CLASSIFICATION_TYPE":"U","NORAD_CAT_ID":60396,"ELEMENT_SET_NO":999,"REV_AT_EPOCH":7833,"BSTAR":0.00017118,"MEAN_MOTION_DOT":1.22e-6,"MEAN_MOTION_DDOT":0},{"OBJECT_NAME":"QIANFAN-19","OBJECT_ID":"2024-185A","EPOCH":"2026-03-02T19:32:25.911456","MEAN_MOTION":14.14383505,"ECCENTRICITY":0.000881,"INCLINATION":88.9756,"RA_OF_ASC_NODE":68.7477,"ARG_OF_PERICENTER":57.964,"MEAN_ANOMALY":302.2402,"EPHEMERIS_TYPE":0,"CLASSIFICATION_TYPE":"U","NORAD_CAT_ID":61552,"ELEMENT_SET_NO":999,"REV_AT_EPOCH":8098,"BSTAR":0.00030471,"MEAN_MOTION_DOT":5.97e-6,"MEAN_MOTION_DDOT":0},{"OBJECT_NAME":"QIANFAN-20","OBJECT_ID":"2024-185B","EPOCH":"2026-03-02T19:13:50.328480","MEAN_MOTION":14.08929901,"ECCENTRICITY":0.0007943,"INCLINATION":88.9754,"RA_OF_ASC_NODE":69.1539,"ARG_OF_PERICENTER":89.1587,"MEAN_ANOMALY":271.0506,"EPHEMERIS_TYPE":0,"CLASSIFICATION_TYPE":"U","NORAD_CAT_ID":61553,"ELEMENT_SET_NO":999,"REV_AT_EPOCH":8076,"BSTAR":0.00034238,"MEAN_MOTION_DOT":6.06e-6,"MEAN_MOTION_DDOT":0},{"OBJECT_NAME":"QIANFAN-21","OBJECT_ID":"2024-185C","EPOCH":"2026-03-02T19:00:39.996576","MEAN_MOTION":14.22723519,"ECCENTRICITY":0.0012943,"INCLINATION":88.9674,"RA_OF_ASC_NODE":67.5847,"ARG_OF_PERICENTER":100.4787,"MEAN_ANOMALY":259.7864,"EPHEMERIS_TYPE":0,"CLASSIFICATION_TYPE":"U","NORAD_CAT_ID":61554,"ELEMENT_SET_NO":999,"REV_AT_EPOCH":8135,"BSTAR":0.00034062,"MEAN_MOTION_DOT":7.78e-6,"MEAN_MOTION_DDOT":0},{"OBJECT_NAME":"QIANFAN-22","OBJECT_ID":"2024-185D","EPOCH":"2026-03-02T18:18:27.226368","MEAN_MOTION":13.86336975,"ECCENTRICITY":0.0008489,"INCLINATION":88.9738,"RA_OF_ASC_NODE":70.4629,"ARG_OF_PERICENTER":106.7454,"MEAN_ANOMALY":253.465,"EPHEMERIS_TYPE":0,"CLASSIFICATION_TYPE":"U","NORAD_CAT_ID":61555,"ELEMENT_SET_NO":999,"REV_AT_EPOCH":8002,"BSTAR":0.00023264,"MEAN_MOTION_DOT":2.82e-6,"MEAN_MOTION_DDOT":0},{"OBJECT_NAME":"QIANFAN-23","OBJECT_ID":"2024-185E","EPOCH":"2026-03-02T17:56:11.051232","MEAN_MOTION":14.16388163,"ECCENTRICITY":0.0009691,"INCLINATION":88.9749,"RA_OF_ASC_NODE":68.5274,"ARG_OF_PERICENTER":66.1127,"MEAN_ANOMALY":294.1075,"EPHEMERIS_TYPE":0,"CLASSIFICATION_TYPE":"U","NORAD_CAT_ID":61556,"ELEMENT_SET_NO":999,"REV_AT_EPOCH":8107,"BSTAR":0.00030896,"MEAN_MOTION_DOT":6.28e-6,"MEAN_MOTION_DDOT":0},{"OBJECT_NAME":"QIANFAN-24","OBJECT_ID":"2024-185F","EPOCH":"2026-03-02T19:08:34.011168","MEAN_MOTION":14.23926427,"ECCENTRICITY":0.0010877,"INCLINATION":88.9732,"RA_OF_ASC_NODE":67.7956,"ARG_OF_PERICENTER":46.7081,"MEAN_ANOMALY":313.5017,"EPHEMERIS_TYPE":0,"CLASSIFICATION_TYPE":"U","NORAD_CAT_ID":61557,"ELEMENT_SET_NO":999,"REV_AT_EPOCH":8141,"BSTAR":0.00038436,"MEAN_MOTION_DOT":8.95e-6,"MEAN_MOTION_DDOT":0},{"OBJECT_NAME":"QIANFAN-25","OBJECT_ID":"2024-185G","EPOCH":"2026-03-02T18:57:42.702048","MEAN_MOTION":14.05991951,"ECCENTRICITY":0.0011932,"INCLINATION":88.9746,"RA_OF_ASC_NODE":69.1121,"ARG_OF_PERICENTER":72.9006,"MEAN_ANOMALY":287.3482,"EPHEMERIS_TYPE":0,"CLASSIFICATION_TYPE":"U","NORAD_CAT_ID":61558,"ELEMENT_SET_NO":999,"REV_AT_EPOCH":8075,"BSTAR":0.00031875,"MEAN_MOTION_DOT":5.36e-6,"MEAN_MOTION_DDOT":0},{"OBJECT_NAME":"QIANFAN-26","OBJECT_ID":"2024-185H","EPOCH":"2026-03-02T18:40:04.404864","MEAN_MOTION":13.77859733,"ECCENTRICITY":0.0007538,"INCLINATION":88.9743,"RA_OF_ASC_NODE":71.0967,"ARG_OF_PERICENTER":119.328,"MEAN_ANOMALY":240.8641,"EPHEMERIS_TYPE":0,"CLASSIFICATION_TYPE":"U","NORAD_CAT_ID":61559,"ELEMENT_SET_NO":999,"REV_AT_EPOCH":7969,"BSTAR":0.0002521,"MEAN_MOTION_DOT":2.65e-6,"MEAN_MOTION_DDOT":0},{"OBJECT_NAME":"QIANFAN-27","OBJECT_ID":"2024-185J","EPOCH":"2026-03-02T19:20:37.629312","MEAN_MOTION":14.27439528,"ECCENTRICITY":0.0008975,"INCLINATION":88.9745,"RA_OF_ASC_NODE":67.5391,"ARG_OF_PERICENTER":40.2254,"MEAN_ANOMALY":319.9602,"EPHEMERIS_TYPE":0,"CLASSIFICATION_TYPE":"U","NORAD_CAT_ID":61560,"ELEMENT_SET_NO":999,"REV_AT_EPOCH":8158,"BSTAR":0.00027628,"MEAN_MOTION_DOT":6.92e-6,"MEAN_MOTION_DDOT":0},{"OBJECT_NAME":"QIANFAN-28","OBJECT_ID":"2024-185K","EPOCH":"2026-03-02T17:55:37.700832","MEAN_MOTION":14.28205501,"ECCENTRICITY":0.0008571,"INCLINATION":88.9761,"RA_OF_ASC_NODE":67.5532,"ARG_OF_PERICENTER":41.1837,"MEAN_ANOMALY":319.0003,"EPHEMERIS_TYPE":0,"CLASSIFICATION_TYPE":"U","NORAD_CAT_ID":61561,"ELEMENT_SET_NO":999,"REV_AT_EPOCH":8159,"BSTAR":0.00040441,"MEAN_MOTION_DOT":1.021e-5,"MEAN_MOTION_DDOT":0},{"OBJECT_NAME":"QIANFAN-29","OBJECT_ID":"2024-185L","EPOCH":"2026-03-02T19:11:45.055392","MEAN_MOTION":13.51042315,"ECCENTRICITY":0.0010104,"INCLINATION":88.9716,"RA_OF_ASC_NODE":73.0225,"ARG_OF_PERICENTER":167.4415,"MEAN_ANOMALY":192.699,"EPHEMERIS_TYPE":0,"CLASSIFICATION_TYPE":"U","NORAD_CAT_ID":61562,"ELEMENT_SET_NO":999,"REV_AT_EPOCH":7860,"BSTAR":0.00031145,"MEAN_MOTION_DOT":2.13e-6,"MEAN_MOTION_DDOT":0},{"OBJECT_NAME":"QIANFAN-30","OBJECT_ID":"2024-185M","EPOCH":"2026-03-02T18:16:10.116480","MEAN_MOTION":13.50017464,"ECCENTRICITY":0.0008436,"INCLINATION":88.9736,"RA_OF_ASC_NODE":72.5826,"ARG_OF_PERICENTER":151.1861,"MEAN_ANOMALY":208.9757,"EPHEMERIS_TYPE":0,"CLASSIFICATION_TYPE":"U","NORAD_CAT_ID":61563,"ELEMENT_SET_NO":999,"REV_AT_EPOCH":7886,"BSTAR":0.00030204,"MEAN_MOTION_DOT":2.04e-6,"MEAN_MOTION_DDOT":0},{"OBJECT_NAME":"QIANFAN-31","OBJECT_ID":"2024-185N","EPOCH":"2026-03-02T18:36:43.251840","MEAN_MOTION":13.58001714,"ECCENTRICITY":0.000813,"INCLINATION":88.9721,"RA_OF_ASC_NODE":72.2556,"ARG_OF_PERICENTER":142.5098,"MEAN_ANOMALY":217.6626,"EPHEMERIS_TYPE":0,"CLASSIFICATION_TYPE":"U","NORAD_CAT_ID":61564,"ELEMENT_SET_NO":999,"REV_AT_EPOCH":7902,"BSTAR":0.00028696,"MEAN_MOTION_DOT":2.2e-6,"MEAN_MOTION_DDOT":0},{"OBJECT_NAME":"QIANFAN-32","OBJECT_ID":"2024-185P","EPOCH":"2026-03-02T18:13:42.343104","MEAN_MOTION":13.50763001,"ECCENTRICITY":0.0009435,"INCLINATION":88.978,"RA_OF_ASC_NODE":72.7414,"ARG_OF_PERICENTER":180.7539,"MEAN_ANOMALY":179.3599,"EPHEMERIS_TYPE":0,"CLASSIFICATION_TYPE":"U","NORAD_CAT_ID":61565,"ELEMENT_SET_NO":999,"REV_AT_EPOCH":7884,"BSTAR":0.00026536,"MEAN_MOTION_DOT":1.83e-6,"MEAN_MOTION_DDOT":0},{"OBJECT_NAME":"QIANFAN-33","OBJECT_ID":"2024-185Q","EPOCH":"2026-03-02T18:59:48.852096","MEAN_MOTION":13.96620037,"ECCENTRICITY":0.0009348,"INCLINATION":88.9734,"RA_OF_ASC_NODE":69.8664,"ARG_OF_PERICENTER":80.4499,"MEAN_ANOMALY":279.7734,"EPHEMERIS_TYPE":0,"CLASSIFICATION_TYPE":"U","NORAD_CAT_ID":61566,"ELEMENT_SET_NO":999,"REV_AT_EPOCH":8033,"BSTAR":0.00033366,"MEAN_MOTION_DOT":4.76e-6,"MEAN_MOTION_DDOT":0},{"OBJECT_NAME":"QIANFAN-34","OBJECT_ID":"2024-185R","EPOCH":"2026-03-02T18:50:49.556256","MEAN_MOTION":14.02379933,"ECCENTRICITY":0.000824,"INCLINATION":88.971,"RA_OF_ASC_NODE":69.3243,"ARG_OF_PERICENTER":84.1381,"MEAN_ANOMALY":276.0738,"EPHEMERIS_TYPE":0,"CLASSIFICATION_TYPE":"U","NORAD_CAT_ID":61567,"ELEMENT_SET_NO":999,"REV_AT_EPOCH":8057,"BSTAR":0.00030819,"MEAN_MOTION_DOT":4.87e-6,"MEAN_MOTION_DDOT":0}]
