QIANFAN-18              
1 60396U 24140T   26061.77630847  .00000122  00000+0  17118-3 0  9997
2 60396  88.9726 290.6952 0013366 323.8189  36.2057 13.51003113 78334
QIANFAN-19              
1 61552U 24185A   26061.81418879  .00000597  00000+0  30471-3 0  9998
2 61552  88.9756  68.7477 0008810  57.9640 302.2402 14.14383505 80983
QIANFAN-20              
1 61553U 24185B   26061.80127695  .00000606  00000+0  34238-3 0  9997
2 61553  88.9754  69.1539 0007943  89.1587 271.0506 14.08929901 80762
QIANFAN-21              
1 61554U 24185C   26061.79212959  .00000778  00000+0  34062-3 0  9999
2 61554  88.9674  67.5847 0012943 100.4787 259.7864 14.22723519 81352
QIANFAN-22              
1 61555U 24185D   26061.76281512  .00000282  00000+0  23264-3 0  9990
2 61555  88.9738  70.4629 0008489 106.7454 253.4650 13.86336975 80027
QIANFAN-23              
1 61556U 24185E   26061.74735013  .00000628  00000+0  30896-3 0  9992
2 61556  88.9749  68.5274 0009691  66.1127 294.1075 14.16388163 81075
QIANFAN-24              
1 61557U 24185F   26061.79761587  .00000895  00000+0  38436-3 0  9997
2 61557  88.9732  67.7956 0010877  46.7081 313.5017 14.23926427 81416
QIANFAN-25              
1 61558U 24185G   26061.79007757  .00000536  00000+0  31875-3 0  9992
2 61558  88.9746  69.1121 0011932  72.9006 287.3482 14.05991951 80757
QIANFAN-26              
1 61559U 24185H   26061.77782876  .00000265  00000+0  25210-3 0  9998
2 61559  88.9743  71.0967 0007538 119.3280 240.8641 13.77859733 79693
QIANFAN-27              
1 61560U 24185J   26061.80599108  .00000692  00000+0  27628-3 0  9997
2 61560  88.9745  67.5391 0008975  40.2254 319.9602 14.27439528 81585
QIANFAN-28              
1 61561U 24185K   26061.74696413  .00001021  00000+0  40441-3 0  9993
2 61561  88.9761  67.5532 0008571  41.1837 319.0003 14.28205501 81590
QIANFAN-29              
1 61562U 24185L   26061.79982703  .00000213  00000+0  31145-3 0  9992
2 61562  88.9716  73.0225 0010104 167.4415 192.6990 13.51042315 78606
QIANFAN-30              
1 61563U 24185M   26061.76122820  .00000204  00000+0  30204-3 0  9991
2 61563  88.9736  72.5826 0008436 151.1861 208.9757 13.50017464 78866
QIANFAN-31              
1 61564U 24185N   26061.77550060  .00000220  00000+0  28696-3 0  9994
2 61564  88.9721  72.2556 0008130 142.5098 217.6626 13.58001714 79025
QIANFAN-32              
1 61565U 24185P   26061.75951786  .00000183  00000+0  26536-3 0  9992
2 61565  88.9780  72.7414 0009435 180.7539 179.3599 13.50763001 78840
QIANFAN-33              
1 61566U 24185Q   26061.79153764  .00000476  00000+0  33366-3 0  9991
2 61566  88.9734  69.8664 0009348  80.4499 279.7734 13.96620037 80332
QIANFAN-34              
1 61567U 24185R   26061.78529579  .00000487  00000+0  30819-3 0  9994
2 61567  88.9710  69.3243 0008240  84.1381 276.0738 14.02379933 80570
